start=new Date('2022-10-10T00:00:00.000Z').valueOf();
sats=[{"PERIOD":"95.592","SITE":"AFETR","RCS_SIZE":"LARGE","INCLINATION":"53.0542","OBJECT_TYPE":"PAYLOAD","EPHEMERIS_TYPE":"0","BSTAR":"0.00008374100000","REF_FRAME":"TEME","OBJECT_ID":"2020-012E","COUNTRY_CODE":"US","REV_AT_EPOCH":"14699","DECAY_DATE":null,"TLE_LINE1":"1 45182U 20012E   22282.56737485  .00000966  00000-0  83741-4 0  9994","SEMIMAJOR_AXIS":"6925.337","OBJECT_NAME":"STARLINK-1201","ARG_OF_PERICENTER":"81.4410","RA_OF_ASC_NODE":"225.1588","PERIAPSIS":"546.304","MEAN_MOTION":"15.06403849","GP_ID":"214599483","CENTER_NAME":"EARTH","MEAN_MOTION_DDOT":"0.0000000000000","APOAPSIS":"548.100","CLASSIFICATION_TYPE":"U","ELEMENT_SET_NO":"999","MEAN_ANOMALY":"278.6726","MEAN_ELEMENT_THEORY":"SGP4","EPOCH":"2022-10-09T13:37:01.187040","NORAD_CAT_ID":"45182","FILE":"3598879","ECCENTRICITY":"0.00012970","TIME_SYSTEM":"UTC","TLE_LINE2":"2 45182  53.0542 225.1588 0001297  81.4410 278.6726 15.06403849146996","LAUNCH_DATE":"2020-02-17","MEAN_MOTION_DOT":"0.00000966"},{"RA_OF_ASC_NODE":"245.9965","PERIAPSIS":"546.197","MEAN_MOTION":"15.06405931","GP_ID":"214557995","CENTER_NAME":"EARTH","MEAN_MOTION_DDOT":"0.0000000000000","APOAPSIS":"548.193","CLASSIFICATION_TYPE":"U","ELEMENT_SET_NO":"999","MEAN_ANOMALY":"293.8033","MEAN_ELEMENT_THEORY":"SGP4","EPOCH":"2022-10-09T09:14:17.676384","NORAD_CAT_ID":"45183","FILE":"3597861","TIME_SYSTEM":"UTC","ECCENTRICITY":"0.00014410","TLE_LINE2":"2 45183  53.0522 245.9965 0001441  66.3107 293.8033 15.06405931146848","MEAN_MOTION_DOT":"0.00003798","LAUNCH_DATE":"2020-02-17","PERIOD":"95.592","SITE":"AFETR","RCS_SIZE":"LARGE","INCLINATION":"53.0522","OBJECT_TYPE":"PAYLOAD","EPHEMERIS_TYPE":"0","BSTAR":"0.00027367000000","REF_FRAME":"TEME","OBJECT_ID":"2020-012F","COUNTRY_CODE":"US","REV_AT_EPOCH":"14684","DECAY_DATE":null,"TLE_LINE1":"1 45183U 20012F   22282.38492681  .00003798  00000-0  27367-3 0  9998","SEMIMAJOR_AXIS":"6925.330","ARG_OF_PERICENTER":"66.3107","OBJECT_NAME":"STARLINK-1202"},{"DECAY_DATE":null,"REV_AT_EPOCH":"14618","COUNTRY_CODE":"US","OBJECT_ID":"2020-012G","SEMIMAJOR_AXIS":"6925.339","TLE_LINE1":"1 45184U 20012G   22282.57474425  .00001684  00000-0  13192-3 0  9999","ARG_OF_PERICENTER":"74.5061","OBJECT_NAME":"STARLINK-1205","SITE":"AFETR","PERIOD":"95.592","REF_FRAME":"TEME","EPHEMERIS_TYPE":"0","BSTAR":"0.00013192000000","INCLINATION":"53.0539","OBJECT_TYPE":"PAYLOAD","RCS_SIZE":"LARGE","MEAN_ANOMALY":"285.6083","MEAN_ELEMENT_THEORY":"SGP4","CLASSIFICATION_TYPE":"U","ELEMENT_SET_NO":"999","TLE_LINE2":"2 45184  53.0539 225.1434 0001405  74.5061 285.6083 15.06403134146182","LAUNCH_DATE":"2020-02-17","MEAN_MOTION_DOT":"0.00001684","FILE":"3598879","NORAD_CAT_ID":"45184","ECCENTRICITY":"0.00014050","TIME_SYSTEM":"UTC","EPOCH":"2022-10-09T13:47:37.903200","PERIAPSIS":"546.231","RA_OF_ASC_NODE":"225.1434","APOAPSIS":"548.177","CENTER_NAME":"EARTH","MEAN_MOTION_DDOT":"0.0000000000000","MEAN_MOTION":"15.06403134","GP_ID":"214600976"},{"PERIOD":"95.592","SITE":"AFETR","INCLINATION":"53.0545","OBJECT_TYPE":"PAYLOAD","RCS_SIZE":"LARGE","REF_FRAME":"TEME","EPHEMERIS_TYPE":"0","BSTAR":"0.00020356000000","COUNTRY_CODE":"US","OBJECT_ID":"2020-012H","DECAY_DATE":null,"REV_AT_EPOCH":"14685","TLE_LINE1":"1 45185U 20012H   22282.84198197  .00002752  00000-0  20356-3 0  9996","SEMIMAJOR_AXIS":"6925.348","ARG_OF_PERICENTER":"73.4257","OBJECT_NAME":"STARLINK-1216","RA_OF_ASC_NODE":"243.9440","PERIAPSIS":"546.076","MEAN_MOTION":"15.06400025","GP_ID":"214601230","APOAPSIS":"548.351","CENTER_NAME":"EARTH","MEAN_MOTION_DDOT":"0.0000000000000","CLASSIFICATION_TYPE":"U","ELEMENT_SET_NO":"999","MEAN_ANOMALY":"286.6912","MEAN_ELEMENT_THEORY":"SGP4","EPOCH":"2022-10-09T20:12:27.242208","TLE_LINE2":"2 45185  53.0545 243.9440 0001642  73.4257 286.6912 15.06400025146855","MEAN_MOTION_DOT":"0.00002752","LAUNCH_DATE":"2020-02-17","TIME_SYSTEM":"UTC","FILE":"3598879","NORAD_CAT_ID":"45185","ECCENTRICITY":"0.00016420"},{"EPOCH":"2022-10-09T14:11:31.627392","NORAD_CAT_ID":"45186","FILE":"3598879","ECCENTRICITY":"0.00015420","TIME_SYSTEM":"UTC","LAUNCH_DATE":"2020-02-17","MEAN_MOTION_DOT":"0.00002517","TLE_LINE2":"2 45186  53.0547 245.0729 0001542  70.4127 289.7028 15.06402627146811","ELEMENT_SET_NO":"999","CLASSIFICATION_TYPE":"U","MEAN_ELEMENT_THEORY":"SGP4","MEAN_ANOMALY":"289.7028","GP_ID":"214599981","MEAN_MOTION":"15.06402627","MEAN_MOTION_DDOT":"0.0000000000000","CENTER_NAME":"EARTH","APOAPSIS":"548.273","RA_OF_ASC_NODE":"245.0729","PERIAPSIS":"546.138","TLE_LINE1":"1 45186U 20012J   22282.59133828  .00002517  00000-0  18783-3 0  9999","OBJECT_NAME":"STARLINK-1224","SEMIMAJOR_AXIS":"6925.341","ARG_OF_PERICENTER":"70.4127","OBJECT_ID":"2020-012J","COUNTRY_CODE":"US","REV_AT_EPOCH":"14681","DECAY_DATE":null,"RCS_SIZE":"LARGE","OBJECT_TYPE":"PAYLOAD","INCLINATION":"53.0547","BSTAR":"0.00018783000000","EPHEMERIS_TYPE":"0","REF_FRAME":"TEME","PERIOD":"95.592","SITE":"AFETR"},{"FILE":"3597861","NORAD_CAT_ID":"45187","TIME_SYSTEM":"UTC","ECCENTRICITY":"0.00014150","LAUNCH_DATE":"2020-02-17","MEAN_MOTION_DOT":"0.00006060","TLE_LINE2":"2 45187  53.0538 245.9483 0001415  62.9391 297.1742 15.06404752146835","EPOCH":"2022-10-09T09:30:12.807648","MEAN_ELEMENT_THEORY":"SGP4","MEAN_ANOMALY":"297.1742","ELEMENT_SET_NO":"999","CLASSIFICATION_TYPE":"U","MEAN_MOTION_DDOT":"0.0000000000000","CENTER_NAME":"EARTH","APOAPSIS":"548.179","GP_ID":"214558494","MEAN_MOTION":"15.06404752","PERIAPSIS":"546.219","RA_OF_ASC_NODE":"245.9483","TLE_LINE1":"1 45187U 20012K   22282.39598157  .00006060  00000-0  42533-3 0  9995","OBJECT_NAME":"STARLINK-1225","SEMIMAJOR_AXIS":"6925.334","ARG_OF_PERICENTER":"62.9391","REV_AT_EPOCH":"14683","DECAY_DATE":null,"OBJECT_ID":"2020-012K","COUNTRY_CODE":"US","BSTAR":"0.00042533000000","EPHEMERIS_TYPE":"0","REF_FRAME":"TEME","RCS_SIZE":"LARGE","OBJECT_TYPE":"PAYLOAD","INCLINATION":"53.0538","SITE":"AFETR","PERIOD":"95.592"},{"GP_ID":"214556744","MEAN_MOTION":"15.06394560","MEAN_MOTION_DDOT":"0.0000000000000","CENTER_NAME":"EARTH","APOAPSIS":"548.441","RA_OF_ASC_NODE":"205.5080","PERIAPSIS":"546.019","EPOCH":"2022-10-09T11:48:13.119264","TIME_SYSTEM":"UTC","FILE":"3597861","NORAD_CAT_ID":"45188","ECCENTRICITY":"0.00017490","LAUNCH_DATE":"2020-02-17","MEAN_MOTION_DOT":"-0.00000725","TLE_LINE2":"2 45188  53.0531 205.5080 0001749  60.4546 299.6617 15.06394560147361","ELEMENT_SET_NO":"999","CLASSIFICATION_TYPE":"U","MEAN_ELEMENT_THEORY":"SGP4","MEAN_ANOMALY":"299.6617","RCS_SIZE":"LARGE","OBJECT_TYPE":"PAYLOAD","INCLINATION":"53.0531","BSTAR":"-0.00002978000000","EPHEMERIS_TYPE":"0","REF_FRAME":"TEME","PERIOD":"95.592","SITE":"AFETR","TLE_LINE1":"1 45188U 20012L   22282.49181851 -.00000725  00000-0 -29780-4 0  9990","ARG_OF_PERICENTER":"60.4546","SEMIMAJOR_AXIS":"6925.365","OBJECT_NAME":"STARLINK-1228","OBJECT_ID":"2020-012L","COUNTRY_CODE":"US","REV_AT_EPOCH":"14736","DECAY_DATE":null},{"INCLINATION":"53.0538","OBJECT_TYPE":"PAYLOAD","RCS_SIZE":"LARGE","REF_FRAME":"TEME","EPHEMERIS_TYPE":"0","BSTAR":"0.00007945600000","PERIOD":"95.592","SITE":"AFETR","OBJECT_NAME":"STARLINK-1230","TLE_LINE1":"1 45189U 20012M   22282.59870734  .00000902  00000-0  79456-4 0  9997","SEMIMAJOR_AXIS":"6925.353","ARG_OF_PERICENTER":"78.3698","COUNTRY_CODE":"US","OBJECT_ID":"2020-012M","DECAY_DATE":null,"REV_AT_EPOCH":"14409","MEAN_MOTION":"15.06398542","GP_ID":"214600731","APOAPSIS":"548.112","CENTER_NAME":"EARTH","MEAN_MOTION_DDOT":"0.0000000000000","RA_OF_ASC_NODE":"245.0408","PERIAPSIS":"546.324","EPOCH":"2022-10-09T14:22:08.314176","TLE_LINE2":"2 45189  53.0538 245.0408 0001291  78.3698 281.7436 15.06398542144092","MEAN_MOTION_DOT":"0.00000902","LAUNCH_DATE":"2020-02-17","ECCENTRICITY":"0.00012910","FILE":"3598879","NORAD_CAT_ID":"45189","TIME_SYSTEM":"UTC","CLASSIFICATION_TYPE":"U","ELEMENT_SET_NO":"999","MEAN_ANOMALY":"281.7436","MEAN_ELEMENT_THEORY":"SGP4"},{"EPOCH":"2022-10-09T11:37:36.652800","FILE":"3597861","ECCENTRICITY":"0.00014670","NORAD_CAT_ID":"45190","TIME_SYSTEM":"UTC","LAUNCH_DATE":"2020-02-17","MEAN_MOTION_DOT":"0.00000682","TLE_LINE2":"2 45190  53.0535 205.5508 0001467  80.1457 279.9697 15.06396739147314","ELEMENT_SET_NO":"999","CLASSIFICATION_TYPE":"U","MEAN_ELEMENT_THEORY":"SGP4","MEAN_ANOMALY":"279.9697","GP_ID":"214558245","MEAN_MOTION":"15.06396739","MEAN_MOTION_DDOT":"0.0000000000000","CENTER_NAME":"EARTH","APOAPSIS":"548.240","RA_OF_ASC_NODE":"205.5508","PERIAPSIS":"546.208","ARG_OF_PERICENTER":"80.1457","TLE_LINE1":"1 45190U 20012N   22282.48445200  .00000682  00000-0  64690-4 0  9992","SEMIMAJOR_AXIS":"6925.359","OBJECT_NAME":"STARLINK-1234","OBJECT_ID":"2020-012N","COUNTRY_CODE":"US","REV_AT_EPOCH":"14731","DECAY_DATE":null,"RCS_SIZE":"LARGE","OBJECT_TYPE":"PAYLOAD","INCLINATION":"53.0535","BSTAR":"0.00006469000000","EPHEMERIS_TYPE":"0","REF_FRAME":"TEME","PERIOD":"95.592","SITE":"AFETR"},{"EPHEMERIS_TYPE":"0","BSTAR":"0.00000173450000","REF_FRAME":"TEME","RCS_SIZE":"LARGE","INCLINATION":"53.0542","OBJECT_TYPE":"PAYLOAD","SITE":"AFETR","PERIOD":"95.592","TLE_LINE1":"1 45191U 20012P   22282.60608396 -.00000256  00000-0  17345-5 0  9998","ARG_OF_PERICENTER":"77.4738","SEMIMAJOR_AXIS":"6925.343","OBJECT_NAME":"STARLINK-1236","REV_AT_EPOCH":"14408","DECAY_DATE":null,"OBJECT_ID":"2020-012P","COUNTRY_CODE":"US","CENTER_NAME":"EARTH","MEAN_MOTION_DDOT":"0.0000000000000","APOAPSIS":"548.200","MEAN_MOTION":"15.06401911","GP_ID":"214600228","PERIAPSIS":"546.215","RA_OF_ASC_NODE":"244.9995","ECCENTRICITY":"0.00014330","FILE":"3598879","NORAD_CAT_ID":"45191","TIME_SYSTEM":"UTC","TLE_LINE2":"2 45191  53.0542 244.9995 0001433  77.4738 282.6411 15.06401911144089","LAUNCH_DATE":"2020-02-17","MEAN_MOTION_DOT":"-0.00000256","EPOCH":"2022-10-09T14:32:45.654144","MEAN_ANOMALY":"282.6411","MEAN_ELEMENT_THEORY":"SGP4","CLASSIFICATION_TYPE":"U","ELEMENT_SET_NO":"999"}];
